CCSDS_OMM_VERS = 2.0
CREATION_DATE  = 
ORIGINATOR     = 

OBJECT_NAME    = STARLINK-36779
OBJECT_ID      = 2026-034V
CENTER_NAME    = EARTH
REF_FRAME      = TEME
TIME_SYSTEM    = UTC
MEAN_ELEMENT_THEORY = SGP/SGP4

EPOCH          = 2026-03-16T16:06:58.978944
MEAN_MOTION    = 15.80939228
ECCENTRICITY   = .000045
INCLINATION    = 53.1592
RA_OF_ASC_NODE = 176.1963
ARG_OF_PERICENTER = 193.3447
MEAN_ANOMALY   = 166.7564

EPHEMERIS_TYPE = 0
CLASSIFICATION_TYPE = U
NORAD_CAT_ID   = 67869
ELEMENT_SET_NO = 999
REV_AT_EPOCH   = 504
BSTAR          = .19302E-2
MEAN_MOTION_DOT = .399672E-2
MEAN_MOTION_DDOT = 0

CCSDS_OMM_VERS = 2.0
CREATION_DATE  = 
ORIGINATOR     = 

OBJECT_NAME    = STARLINK-36770
OBJECT_ID      = 2026-034W
CENTER_NAME    = EARTH
REF_FRAME      = TEME
TIME_SYSTEM    = UTC
MEAN_ELEMENT_THEORY = SGP/SGP4

EPOCH          = 2026-03-16T16:04:50.114208
MEAN_MOTION    = 15.80807463
ECCENTRICITY   = .0002709
INCLINATION    = 53.1589
RA_OF_ASC_NODE = 176.1870
ARG_OF_PERICENTER = 67.6867
MEAN_ANOMALY   = 292.4442

EPHEMERIS_TYPE = 0
CLASSIFICATION_TYPE = U
NORAD_CAT_ID   = 67870
ELEMENT_SET_NO = 999
REV_AT_EPOCH   = 504
BSTAR          = .13703E-2
MEAN_MOTION_DOT = .277804E-2
MEAN_MOTION_DDOT = 0

CCSDS_OMM_VERS = 2.0
CREATION_DATE  = 
ORIGINATOR     = 

OBJECT_NAME    = STARLINK-36769
OBJECT_ID      = 2026-034X
CENTER_NAME    = EARTH
REF_FRAME      = TEME
TIME_SYSTEM    = UTC
MEAN_ELEMENT_THEORY = SGP/SGP4

EPOCH          = 2026-03-16T16:05:54.730176
MEAN_MOTION    = 15.80882103
ECCENTRICITY   = .0001545
INCLINATION    = 53.1586
RA_OF_ASC_NODE = 176.1925
ARG_OF_PERICENTER = 60.1174
MEAN_ANOMALY   = 300.0002

EPHEMERIS_TYPE = 0
CLASSIFICATION_TYPE = U
NORAD_CAT_ID   = 67871
ELEMENT_SET_NO = 999
REV_AT_EPOCH   = 504
BSTAR          = .17558E-2
MEAN_MOTION_DOT = .360878E-2
MEAN_MOTION_DDOT = 0

CCSDS_OMM_VERS = 2.0
CREATION_DATE  = 
ORIGINATOR     = 

OBJECT_NAME    = STARLINK-36786
OBJECT_ID      = 2026-034Y
CENTER_NAME    = EARTH
REF_FRAME      = TEME
TIME_SYSTEM    = UTC
MEAN_ELEMENT_THEORY = SGP/SGP4

EPOCH          = 2026-03-16T16:03:44.869248
MEAN_MOTION    = 15.80920527
ECCENTRICITY   = .0001245
INCLINATION    = 53.1590
RA_OF_ASC_NODE = 176.1817
ARG_OF_PERICENTER = 100.8286
MEAN_ANOMALY   = 259.2877

EPHEMERIS_TYPE = 0
CLASSIFICATION_TYPE = U
NORAD_CAT_ID   = 67872
ELEMENT_SET_NO = 999
REV_AT_EPOCH   = 504
BSTAR          = .10374E-2
MEAN_MOTION_DOT = .209558E-2
MEAN_MOTION_DDOT = 0

CCSDS_OMM_VERS = 2.0
CREATION_DATE  = 
ORIGINATOR     = 

OBJECT_NAME    = STARLINK-36783
OBJECT_ID      = 2026-034Z
CENTER_NAME    = EARTH
REF_FRAME      = TEME
TIME_SYSTEM    = UTC
MEAN_ELEMENT_THEORY = SGP/SGP4

EPOCH          = 2026-03-16T14:31:37.939872
MEAN_MOTION    = 15.80852469
ECCENTRICITY   = .0001657
INCLINATION    = 53.1590
RA_OF_ASC_NODE = 176.4930
ARG_OF_PERICENTER = 76.8997
MEAN_ANOMALY   = 283.2210

EPHEMERIS_TYPE = 0
CLASSIFICATION_TYPE = U
NORAD_CAT_ID   = 67873
ELEMENT_SET_NO = 999
REV_AT_EPOCH   = 503
BSTAR          = .14631E-2
MEAN_MOTION_DOT = .297973E-2
MEAN_MOTION_DDOT = 0

CCSDS_OMM_VERS = 2.0
CREATION_DATE  = 
ORIGINATOR     = 

OBJECT_NAME    = STARLINK-36730
OBJECT_ID      = 2026-034AA
CENTER_NAME    = EARTH
REF_FRAME      = TEME
TIME_SYSTEM    = UTC
MEAN_ELEMENT_THEORY = SGP/SGP4

EPOCH          = 2026-03-16T16:01:35.474880
MEAN_MOTION    = 15.80882575
ECCENTRICITY   = .0001483
INCLINATION    = 53.1588
RA_OF_ASC_NODE = 176.1729
ARG_OF_PERICENTER = 53.8079
MEAN_ANOMALY   = 306.3081

EPHEMERIS_TYPE = 0
CLASSIFICATION_TYPE = U
NORAD_CAT_ID   = 67874
ELEMENT_SET_NO = 999
REV_AT_EPOCH   = 504
BSTAR          = .14209E-2
MEAN_MOTION_DOT = .289476E-2
MEAN_MOTION_DDOT = 0

CCSDS_OMM_VERS = 2.0
CREATION_DATE  = 
ORIGINATOR     = 

OBJECT_NAME    = STARLINK-36727
OBJECT_ID      = 2026-034AB
CENTER_NAME    = EARTH
REF_FRAME      = TEME
TIME_SYSTEM    = UTC
MEAN_ELEMENT_THEORY = SGP/SGP4

EPOCH          = 2026-03-16T17:31:33.089376
MEAN_MOTION    = 15.81394411
ECCENTRICITY   = .0001836
INCLINATION    = 53.1589
RA_OF_ASC_NODE = 175.8506
ARG_OF_PERICENTER = 335.7574
MEAN_ANOMALY   = 24.3363

EPHEMERIS_TYPE = 0
CLASSIFICATION_TYPE = U
NORAD_CAT_ID   = 67875
ELEMENT_SET_NO = 999
REV_AT_EPOCH   = 505
BSTAR          = .21157E-2
MEAN_MOTION_DOT = .450053E-2
MEAN_MOTION_DDOT = 0

CCSDS_OMM_VERS = 2.0
CREATION_DATE  = 
ORIGINATOR     = 

OBJECT_NAME    = STARLINK-36743
OBJECT_ID      = 2026-034AC
CENTER_NAME    = EARTH
REF_FRAME      = TEME
TIME_SYSTEM    = UTC
MEAN_ELEMENT_THEORY = SGP/SGP4

EPOCH          = 2026-03-16T17:30:28.118304
MEAN_MOTION    = 15.80875092
ECCENTRICITY   = .0002117
INCLINATION    = 53.1596
RA_OF_ASC_NODE = 175.8467
ARG_OF_PERICENTER = 24.7881
MEAN_ANOMALY   = 335.3243

EPHEMERIS_TYPE = 0
CLASSIFICATION_TYPE = U
NORAD_CAT_ID   = 67876
ELEMENT_SET_NO = 999
REV_AT_EPOCH   = 505
BSTAR          = .14812E-2
MEAN_MOTION_DOT = .302137E-2
MEAN_MOTION_DDOT = 0

CCSDS_OMM_VERS = 2.0
CREATION_DATE  = 
ORIGINATOR     = 

OBJECT_NAME    = STARLINK-36784
OBJECT_ID      = 2026-034AD
CENTER_NAME    = EARTH
REF_FRAME      = TEME
TIME_SYSTEM    = UTC
MEAN_ELEMENT_THEORY = SGP/SGP4

EPOCH          = 2026-03-16T17:29:22.341984
MEAN_MOTION    = 15.81233736
ECCENTRICITY   = .0003321
INCLINATION    = 53.1593
RA_OF_ASC_NODE = 175.8384
ARG_OF_PERICENTER = 197.8436
MEAN_ANOMALY   = 162.2470

EPHEMERIS_TYPE = 0
CLASSIFICATION_TYPE = U
NORAD_CAT_ID   = 67877
ELEMENT_SET_NO = 999
REV_AT_EPOCH   = 505
BSTAR          = .17302E-2
MEAN_MOTION_DOT = .361463E-2
MEAN_MOTION_DDOT = 0

CCSDS_OMM_VERS = 2.0
CREATION_DATE  = 
ORIGINATOR     = 

OBJECT_NAME    = STARLINK-36689
OBJECT_ID      = 2026-034AE
CENTER_NAME    = EARTH
REF_FRAME      = TEME
TIME_SYSTEM    = UTC
MEAN_ELEMENT_THEORY = SGP/SGP4

EPOCH          = 2026-03-16T17:28:18.222816
MEAN_MOTION    = 15.80933186
ECCENTRICITY   = .0001438
INCLINATION    = 53.1596
RA_OF_ASC_NODE = 175.8346
ARG_OF_PERICENTER = 92.9903
MEAN_ANOMALY   = 267.1285

EPHEMERIS_TYPE = 0
CLASSIFICATION_TYPE = U
NORAD_CAT_ID   = 67878
ELEMENT_SET_NO = 999
REV_AT_EPOCH   = 505
BSTAR          = .17239E-2
MEAN_MOTION_DOT = .354879E-2
MEAN_MOTION_DDOT = 0

CCSDS_OMM_VERS = 2.0
CREATION_DATE  = 
ORIGINATOR     = 

OBJECT_NAME    = STARLINK-36818
OBJECT_ID      = 2026-035A
CENTER_NAME    = EARTH
REF_FRAME      = TEME
TIME_SYSTEM    = UTC
MEAN_ELEMENT_THEORY = SGP/SGP4

EPOCH          = 2026-03-16T20:00:01.999008
MEAN_MOTION    = 15.75235015
ECCENTRICITY   = .0001334
INCLINATION    = 97.2865
RA_OF_ASC_NODE = 8.5654
ARG_OF_PERICENTER = 92.8407
MEAN_ANOMALY   = 19.3116

EPHEMERIS_TYPE = 0
CLASSIFICATION_TYPE = U
NORAD_CAT_ID   = 67879
ELEMENT_SET_NO = 999
REV_AT_EPOCH   = 490
BSTAR          = -.64418E-3
MEAN_MOTION_DOT = -.95335E-3
MEAN_MOTION_DDOT = 0

CCSDS_OMM_VERS = 2.0
CREATION_DATE  = 
ORIGINATOR     = 

OBJECT_NAME    = STARLINK-36821
OBJECT_ID      = 2026-035B
CENTER_NAME    = EARTH
REF_FRAME      = TEME
TIME_SYSTEM    = UTC
MEAN_ELEMENT_THEORY = SGP/SGP4

EPOCH          = 2026-03-16T20:00:01.999008
MEAN_MOTION    = 15.75251663
ECCENTRICITY   = .0001409
INCLINATION    = 97.2864
RA_OF_ASC_NODE = 8.5715
ARG_OF_PERICENTER = 94.7524
MEAN_ANOMALY   = 33.3887

EPHEMERIS_TYPE = 0
CLASSIFICATION_TYPE = U
NORAD_CAT_ID   = 67880
ELEMENT_SET_NO = 999
REV_AT_EPOCH   = 490
BSTAR          = -.80687E-3
MEAN_MOTION_DOT = -.119136E-2
MEAN_MOTION_DDOT = 0

