STARLINK-36779          
1 67869U 26034V   26075.67151596  .00399672  00000+0  19302-2 0  9993
2 67869  53.1592 176.1963 0000450 193.3447 166.7564 15.80939228  5047
STARLINK-36770          
1 67870U 26034W   26075.67002447  .00277804  00000+0  13703-2 0  9996
2 67870  53.1589 176.1870 0002709  67.6867 292.4442 15.80807463  5047
STARLINK-36769          
1 67871U 26034X   26075.67077234  .00360878  00000+0  17558-2 0  9999
2 67871  53.1586 176.1925 0001545  60.1174 300.0002 15.80882103  5044
STARLINK-36786          
1 67872U 26034Y   26075.66926932  .00209558  00000+0  10374-2 0  9993
2 67872  53.1590 176.1817 0001245 100.8286 259.2877 15.80920527  5041
STARLINK-36783          
1 67873U 26034Z   26075.60530023  .00297973  00000+0  14631-2 0  9998
2 67873  53.1590 176.4930 0001657  76.8997 283.2210 15.80852469  5035
STARLINK-36730          
1 67874U 26034AA  26075.66777170  .00289476  00000+0  14209-2 0  9991
2 67874  53.1588 176.1729 0001483  53.8079 306.3081 15.80882575  5044
STARLINK-36727          
1 67875U 26034AB  26075.73024409  .00450053  00000+0  21157-2 0  9991
2 67875  53.1589 175.8506 0001836 335.7574  24.3363 15.81394411  5058
STARLINK-36743          
1 67876U 26034AC  26075.72949211  .00302137  00000+0  14812-2 0  9997
2 67876  53.1596 175.8467 0002117  24.7881 335.3243 15.80875092  5052
STARLINK-36784          
1 67877U 26034AD  26075.72873081  .00361463  00000+0  17302-2 0  9993
2 67877  53.1593 175.8384 0003321 197.8436 162.2470 15.81233736  5057
STARLINK-36689          
1 67878U 26034AE  26075.72798869  .00354879  00000+0  17239-2 0  9996
2 67878  53.1596 175.8346 0001438  92.9903 267.1285 15.80933186  5054
STARLINK-36818          
1 67879U 26035A   26075.83335647 -.00095335  00000+0 -64418-3 0  9994
2 67879  97.2865   8.5654 0001334  92.8407  19.3116 15.75235015  4903
STARLINK-36821          
1 67880U 26035B   26075.83335647 -.00119136  00000+0 -80687-3 0  9998
2 67880  97.2864   8.5715 0001409  94.7524  33.3887 15.75251663  4904
